# From MPC191631
403P/Catalina,e,12.3134,163.6994,277.8708,5.434458,0.0777982,0.50395245,160.0261,05/07.0/2026,2000,g 12.0,4.0
# From MPEC 2026-FC3
404P/Bressi,e,9.8037,260.0301,168.7513,4.715129,0.0962640,0.12363584,88.6191,05/07.0/2026,2000,g 10.0,4.0
# From MPC191631
405P/Lemmon,e,9.3756,3.1959,112.3276,3.602730,0.1441307,0.69030870,282.0843,05/07.0/2026,2000,g 17.5,4.0
# From MPC191631
406P/Gibbs,e,1.2098,11.4898,352.4273,3.580448,0.1454782,0.54076399,299.7702,05/07.0/2026,2000,g 17.0,4.0
# From MPC191631
407P/PANSTARRS-Fuls,e,4.8719,80.2310,92.9781,3.493791,0.1509242,0.37504338,348.0134,05/07.0/2026,2000,g 14.0,4.0
# From MPC191631
408P/Novichonok-Gerke,e,19.3457,189.4509,226.7536,4.747567,0.0952791,0.26799162,124.7400,05/07.0/2026,2000,g 11.0,4.0
# From MPC191631
410P/NEAT-LINEAR,e,9.3890,139.8846,313.3957,6.658246,0.0573673,0.51150288,101.9460,05/07.0/2026,2000,g 12.5,4.0
# From MPC191631
411P/Christensen,e,12.3850,77.6420,46.6066,5.812553,0.0703321,0.58195258,135.4906,05/07.0/2026,2000,g 13.5,4.0
# From MPC191632
412P/WISE,e,8.9286,0.8177,155.8192,3.113072,0.1794405,0.47907726,355.7759,05/07.0/2026,2000,g 17.0,4.0
# From MPC191632
413P/Larson,e,15.9487,38.9312,186.6511,3.738085,0.1363736,0.41732224,239.9948,05/07.0/2026,2000,g 14.0,4.0
# From MPC191632
414P/STEREO,e,23.4054,257.8156,210.7165,2.792675,0.2111900,0.81227747,47.0292,05/07.0/2026,2000,g 19.0,4.0
# From MPC191632
415P/Tenagra,e,31.8176,160.2585,345.9650,4.106694,0.1184310,0.19584924,225.7173,05/07.0/2026,2000,g 12.0,4.0
# From MPC191632
416P/Scotti,e,3.3646,355.7196,134.5008,4.005348,0.1229543,0.45571385,234.1060,05/07.0/2026,2000,g 15.5,4.0
# From MPC191632
417P/NEOWISE,e,11.3311,95.2543,142.0920,3.384749,0.1582757,0.53555305,299.9763,05/07.0/2026,2000,g 16.5,4.0
# From MPC191632
418P/LINEAR,e,5.7875,277.2404,307.6621,5.086788,0.0859090,0.66442457,142.9002,05/07.0/2026,2000,g 13.0,4.0
# From MPC191632
419P/PANSTARRS,e,2.7897,40.3384,187.6373,3.540591,0.1479416,0.27189212,245.9651,05/07.0/2026,2000,g 12.5,4.0
# From MPC191632
420P/Hill,e,14.5423,173.2587,156.4074,5.469291,0.0770562,0.49460954,111.9529,05/07.0/2026,2000,g 11.5,4.0
# From MPC191633
422P/Christensen,e,39.5799,36.0077,304.7102,6.270741,0.0627662,0.50523699,99.0796,05/07.0/2026,2000,g 11.0,4.0
# From MPC191633
423P/Lemmon,e,8.3392,33.2971,81.2549,6.186534,0.0640520,0.12272613,107.5855,05/07.0/2026,2000,g  8.0,4.0
# From MPC191633
425P/Kowalski,e,16.4044,210.0945,201.0364,6.354849,0.0615242,0.54323061,103.9511,05/07.0/2026,2000,g 12.0,4.0
# From MPC191633
426P/PANSTARRS,e,17.7840,280.3959,118.3847,3.186415,0.1732809,0.16075512,168.0930,05/07.0/2026,2000,g 13.5,4.0
# From MPC191633
427P/ATLAS,e,11.8651,252.3243,99.6058,3.163569,0.1751613,0.31521013,200.7408,05/07.0/2026,2000,g 14.0,4.0
# From MPC191633
428P/Gibbs,e,8.5024,299.3044,36.8656,3.489659,0.1511922,0.51806400,275.3438,05/07.0/2026,2000,g 15.0,4.0
# From MPC191633
429P/LINEAR-Hill,e,7.5140,321.9937,75.7533,3.556780,0.1469327,0.49043690,233.0758,05/07.0/2026,2000,g 15.5,4.0
# From MPC191633
430P/Scotti,e,4.4764,54.6343,94.4963,3.102330,0.1803732,0.50054461,291.3887,05/07.0/2026,2000,g 16.5,4.0
# From MPC191633
431P/Scotti,e,22.3714,202.8236,200.0162,3.477761,0.1519688,0.47699991,234.6073,05/07.0/2026,2000,g 14.0,4.0
# From MPC191634
432P/PANSTARRS,e,10.0664,239.1291,105.2147,3.038975,0.1860430,0.24070073,318.6381,05/07.0/2026,2000,g 17.0,4.0
# From MPC191634
434P/Tenagra,e,6.3365,288.9092,128.4868,4.137507,0.1171105,0.27386326,193.6106,05/07.0/2026,2000,g 13.0,4.0
# From MPC191634
435P/PANSTARRS,e,18.8743,98.5238,244.1656,3.022247,0.1875898,0.31744233,327.6224,05/07.0/2026,2000,g 17.0,4.0
# From MPC191634
437P/Lemmon-PANSTARRS,e,3.6882,245.8426,207.1640,4.571141,0.1008480,0.25480386,136.6862,05/07.0/2026,2000,g 13.0,4.0
# From MPC191634
438P/Christensen,e,8.2806,260.1106,58.9312,3.854157,0.1302596,0.41410217,290.1821,05/07.0/2026,2000,g 14.5,4.0
# From MPC191634
439P/LINEAR,e,7.1110,56.3995,342.1390,3.492461,0.1510104,0.46875772,258.9668,05/07.0/2026,2000,g 13.5,4.0
# From MPC191634
441P/PANSTARRS,e,2.5747,143.5882,178.8094,4.130233,0.1174200,0.19428996,28.1737,05/07.0/2026,2000,g 13.5,4.0
# From MPC191634
442P/McNaught,e,6.0603,31.8306,310.5947,4.947712,0.0895566,0.53290689,121.7303,05/07.0/2026,2000,g 13.5,4.0
# From MPC191635
443P/PANSTARRS-Christensen,e,19.8883,108.9318,145.0022,4.124092,0.1176824,0.28277224,153.7476,05/07.0/2026,2000,g 13.5,4.0
# From MPC191635
445P/Lemmon-PANSTARRS,e,1.0897,126.6054,213.0353,4.042519,0.1212623,0.41493968,164.9305,05/07.0/2026,2000,g 15.0,4.0
# From MPC191635
447P/Sheppard-Tholen,e,7.4418,302.6389,97.2348,5.620882,0.0739601,0.17679018,100.8007,05/07.0/2026,2000,g 12.0,4.0
# From MPC191635
448P/PANSTARRS,e,12.1418,161.7446,218.8034,3.637429,0.1420732,0.41774168,190.3127,05/07.0/2026,2000,g 16.0,4.0
# From MPC191635
449P/Leonard,e,15.4667,242.5126,176.7908,3.599368,0.1443327,0.47961725,286.9208,05/07.0/2026,2000,g 16.0,4.0
# From MPEC 2026-G41
450P/LONEOS,e,11.1504,123.7667,30.3182,7.638284,0.0466886,0.29772623,344.1114,05/07.0/2026,2000,g  6.5,4.0
# From MPC191635
451P/Christensen,e,26.4884,300.8604,186.8474,6.353954,0.0615372,0.55931141,77.2737,05/07.0/2026,2000,g 13.5,4.0
# From MPC191635
452P/Sheppard-Jewitt,e,6.4226,123.6586,37.1554,7.316408,0.0498032,0.42890723,55.1041,05/07.0/2026,2000,g  9.0,4.0
# From MPC191636
453P/WISE-Lemmon,e,27.0484,42.8773,70.9502,5.469938,0.0770425,0.58314837,89.4041,05/07.0/2026,2000,g 14.0,4.0
# From MPC191636
454P/PANSTARRS,e,19.8029,54.5858,20.2465,4.213014,0.1139763,0.36109812,157.3323,05/07.0/2026,2000,g 14.0,4.0
# From MPC191636
455P/PANSTARRS,e,14.1333,146.1712,237.5295,3.154258,0.1759374,0.30407948,205.4311,05/07.0/2026,2000,g 17.0,4.0
# From MPC191636
456P/PANSTARRS,e,16.9650,243.1368,232.9898,3.168525,0.1747505,0.11553421,67.6669,05/07.0/2026,2000,g 13.5,4.0
# From MPC191636
457P/Lemmon-PANSTARRS,e,5.2256,175.9584,104.3201,2.645359,0.2290747,0.11813249,143.1981,05/07.0/2026,2000,g 15.5,4.0
# From MPC191636
458P/Jahn,e,13.6218,1.5365,105.0076,3.859927,0.1299677,0.31718594,166.8621,05/07.0/2026,2000,g 14.0,4.0
# From MPC191636
459P/Catalina,e,7.1720,256.9815,205.2510,3.240551,0.1689569,0.57783519,197.6838,05/07.0/2026,2000,g 15.5,4.0
# From MPC191636
461P/WISE,e,18.3932,194.3672,174.8184,3.145064,0.1767094,0.56934780,296.1828,05/07.0/2026,2000,g 18.5,4.0
# From MPC191637
464P/PANSTARRS,e,21.6730,309.5766,267.4608,4.682252,0.0972796,0.28092515,113.2913,05/07.0/2026,2000,g 10.5,4.0
# From MPC191637
465P/Hill,e,25.8636,217.9054,140.9480,6.000084,0.0670607,0.61281336,73.4144,05/07.0/2026,2000,g 12.5,4.0
# From MPC191637
466P/PANSTARRS,e,16.9050,114.9693,195.9120,3.961816,0.1249864,0.45945372,145.0348,05/07.0/2026,2000,g 14.0,4.0
# From MPC191637
467P/LINEAR-Grauer,e,2.4797,43.2617,266.8950,5.822445,0.0701530,0.05407981,88.7595,05/07.0/2026,2000,g  9.0,4.0
# From MPC191637
468P/SidingSpring,e,50.4582,356.1357,322.5234,7.111421,0.0519720,0.44455517,46.6904,05/07.0/2026,2000,g 11.5,4.0
# From MPC191637
469P/PANSTARRS,e,20.1701,178.9612,43.4993,4.344726,0.1088330,0.30835545,16.2810,05/07.0/2026,2000,g 13.5,4.0
# From MPC191637
470P/PANSTARRS,e,8.8441,246.1531,151.6154,4.460530,0.1046223,0.38914834,91.3118,05/07.0/2026,2000,g 15.5,4.0
# From MPC191637
471P/LINEAR-Lemmon,e,4.7963,283.3043,94.6800,5.683113,0.0727486,0.62749091,63.2598,05/07.0/2026,2000,g 12.0,4.0
# From MPEC 2026-E44
472P/NEAT-LINEAR,e,10.8298,205.7823,218.7680,7.752529,0.0456603,0.56331258,30.2611,05/07.0/2026,2000,g 10.5,4.0
# From MPC191638
473P/NEAT,e,56.8710,22.1911,42.9552,7.973930,0.0437719,0.82351390,35.0545,05/07.0/2026,2000,g 13.5,4.0
# From MPC191638
474P/Hogan,e,1.0967,26.7518,11.2673,3.131354,0.1778713,0.18772122,182.6244,05/07.0/2026,2000,g 15.5,4.0
# From MPC191638
475P/Spacewatch-LINEAR,e,14.5247,147.3471,40.4479,7.323524,0.0497306,0.44324212,35.0125,05/07.0/2026,2000,g 11.0,4.0
# From MPC191638
476P/PANSTARRS,e,19.0048,57.0505,46.7657,4.775050,0.0944577,0.34571882,53.5994,05/07.0/2026,2000,g 12.5,4.0
# From MPC191638
477P/PANSTARRS,e,8.9141,59.1354,305.8396,3.001246,0.1895622,0.41762792,163.5286,05/07.0/2026,2000,g 14.5,4.0
# From MPC191638
478P/ATLAS,e,12.5257,127.2571,13.2975,3.649113,0.1413915,0.34384041,103.8682,05/07.0/2026,2000,g 13.5,4.0
# From MPC191638
480P/PANSTARRS,e,13.7137,229.9868,214.5169,4.612968,0.0994795,0.24607152,110.3164,05/07.0/2026,2000,g 12.0,4.0
# From MPC191638
481P/Lemmon-PANSTARRS,e,6.0825,93.5524,356.8837,4.684004,0.0972250,0.34326984,100.3884,05/07.0/2026,2000,g 13.5,4.0
# From MPC191638
482P/PANSTARRS,e,24.4904,126.0692,339.7665,3.757799,0.1353018,0.49227382,144.7300,05/07.0/2026,2000,g 13.5,4.0
# From MPC191639
483P/PANSTARRS,e,14.1799,198.8203,49.9421,3.193282,0.1727222,0.22142841,264.0820,05/07.0/2026,2000,g 16.5,4.0
# From MPC186638
483P-A/PANSTARRS,e,14.1799,198.8204,49.9423,3.193282,0.1727222,0.22142879,264.0816,05/07.0/2026,2000,g 13.5,4.0
# From MPC185666
483P-B/PANSTARRS,e,14.1807,198.8199,49.9331,3.193196,0.1727291,0.22137266,264.1186,05/07.0/2026,2000,g 17.0,4.0
# From MPC191639
484P/Spacewatch,e,14.4747,265.3575,240.8674,3.755468,0.1354278,0.43326504,268.7902,05/07.0/2026,2000,g 16.0,4.0
# From MPC191639
485P/Sheppard-Tholen,e,10.0157,261.6482,196.1823,6.854557,0.0549206,0.41709368,54.1194,05/07.0/2026,2000,g 13.0,4.0
# From MPEC 2026-E43
486P/Leonard,e,2.2098,219.0232,93.9313,3.626493,0.1427164,0.36328710,56.8340,05/07.0/2026,2000,g 14.5,4.0
# From MPC191639
487P/SidingSpring,e,39.3659,49.2014,0.8361,5.159496,0.0840994,0.64822006,47.3912,05/07.0/2026,2000,g 13.5,4.0
# From MPC191639
488P/NEAT-PANSTARRS,e,11.6938,322.7166,3.9706,3.783261,0.1339382,0.54969225,95.8570,05/07.0/2026,2000,g 16.5,4.0
# From MPEC 2024-Q14
489P/Denning,e,4.0260,20.5972,109.4203,4.423952,0.1059225,0.64706209,16.2801,05/07.0/2026,2000,g 15.5,4.0
# From MPC191639
491P/Spacewatch-PANSTARRS,e,9.3671,311.6836,298.8078,5.012245,0.0878326,0.25875000,53.4372,05/07.0/2026,2000,g  9.5,4.0
# From MPEC 2026-E43
